[{"OBJECT_NAME":"STARLINK-3093","OBJECT_ID":"2021-082M","EPOCH":"2026-03-09T21:50:30.209568","MEAN_MOTION":14.98330401,"ECCENTRICITY":0.0002789,"INCLINATION":69.9983,"RA_OF_ASC_NODE":293.9108,"ARG_OF_PERICENTER":269.3238,"MEAN_ANOMALY":90.7602,"EPHEMERIS_TYPE":0,"CLASSIFICATION_TYPE":"U","NORAD_CAT_ID":49141,"ELEMENT_SET_NO":999,"REV_AT_EPOCH":24721,"BSTAR":1.7752566e-5,"MEAN_MOTION_DOT":1.19e-6,"MEAN_MOTION_DDOT":0},{"OBJECT_NAME":"CZ-6A DEB","OBJECT_ID":"2022-151AD","EPOCH":"2026-03-09T17:57:16.876800","MEAN_MOTION":14.82404648,"ECCENTRICITY":0.00830504,"INCLINATION":98.5956,"RA_OF_ASC_NODE":149.7366,"ARG_OF_PERICENTER":144.8242,"MEAN_ANOMALY":215.8491,"EPHEMERIS_TYPE":0,"CLASSIFICATION_TYPE":"U","NORAD_CAT_ID":54286,"ELEMENT_SET_NO":999,"REV_AT_EPOCH":17665,"BSTAR":0.0024695281,"MEAN_MOTION_DOT":0.00021003,"MEAN_MOTION_DDOT":0}]
